OBJECT_NAME,OBJECT_ID,EPOCH,MEAN_MOTION,ECCENTRICITY,INCLINATION,RA_OF_ASC_NODE,ARG_OF_PERICENTER,MEAN_ANOMALY,EPHEMERIS_TYPE,CLASSIFICATION_TYPE,NORAD_CAT_ID,ELEMENT_SET_NO,REV_AT_EPOCH,BSTAR,MEAN_MOTION_DOT,MEAN_MOTION_DDOT
LEMUR-2-STARLIGHT,2025-276DY,2026-07-14T03:13:55.787808,14.99346444,.0014765,97.5234,264.8524,50.4955,309.7571,0,U,66783,999,3423,.32171E-3,.3885E-4,0
LEMUR-2-TARTIFLETTE,2025-276DZ,2026-07-14T04:47:42.796032,14.99332700,.0013889,97.5236,264.9231,58.5182,301.7397,0,U,66784,999,3424,.28677E-3,.3454E-4,0
LEMUR-2-VUKASIN,2025-276EA,2026-07-14T04:06:10.824768,15.00541316,.0003249,97.5233,265.2523,57.2835,302.8702,0,U,66785,999,3419,.21864E-3,.27E-4,0
LEMUR-2-HOTSPUR-TOM,2025-276EB,2026-07-14T04:39:33.504192,14.99234912,.0013818,97.5222,264.8922,49.6288,310.6140,0,U,66786,999,3417,.24874E-3,.2981E-4,0
LEMUR-2-MYRA,2025-276EC,2026-07-14T03:16:08.277888,15.00581958,.0018709,97.5222,265.1383,57.4566,302.8462,0,U,66787,999,3425,.28738E-3,.3583E-4,0
LEMUR-2 FIKRETDENGIZ,2026-004A,2026-07-13T22:59:09.845376,14.88512140,.0010267,97.8023,193.1085,59.2566,300.9661,0,U,67363,999,2726,.24244E-3,.22E-4,0
TWILIGHT-1 OBJECT B,2026-004B,2026-07-13T12:33:51.391872,14.87790232,.0009855,97.8074,192.6825,50.7792,309.4298,0,U,67364,999,2720,.10933E-3,.944E-5,0
LEMUR-2-MARIO-SOUSA,2026-004C,2026-07-14T00:07:12.260928,14.88721612,.0009895,97.7996,193.1501,60.3024,299.9177,0,U,67365,999,2728,.29801E-3,.2732E-4,0
LEMUR-2-SONNENBLUME,2026-004E,2026-07-13T22:34:11.577792,14.88449605,.0009463,97.8000,193.0597,61.6526,298.5644,0,U,67367,999,2727,.16643E-3,.1491E-4,0
LEMUR-2-WOBLER,2026-004F,2026-07-13T23:55:51.195648,14.88692475,.0009543,97.8046,193.2653,53.5609,306.6486,0,U,67368,999,2728,.23788E-3,.2167E-4,0
LEMUR-2-GRAM-E-SUE,2026-004H,2026-07-13T23:44:23.819712,14.88586337,.0008669,97.7985,193.1242,64.1475,296.0635,0,U,67370,999,2728,.14336E-3,.1281E-4,0
LEMUR-2-KATIE,2026-004AA,2026-07-13T22:44:21.579072,14.90244792,.0003604,97.8042,193.6305,37.0859,323.0608,0,U,67387,999,2729,.3177E-3,.3027E-4,0
LEMUR-2-HCS-BAZUS,2026-004AB,2026-07-13T13:01:52.912128,14.90256181,.0003154,97.8038,193.2094,36.4661,323.6771,0,U,67388,999,2723,.17207E-3,.1614E-4,0
